STARLINK-32606          
1 61978U 24210V   26067.32428976  .00040934  00000+0  14875-2 0  9998
2 61978  43.0008 187.3144 0002243 295.6512  64.4108 15.27608245 74674
2025-313BD              
1 67299U 25313BD  26068.62968741  .00081010  00000+0  27634-2 0  9995
2 67299  97.3970 145.2850 0007287 333.4514  26.6352 15.30002360 10838
